INTELSAT 902 (IS-902)   
1 26900U 01039A   26177.13794714 -.00000278  00000+0  00000+0 0  9995
2 26900   6.1388  71.6744 0004209  23.6382 178.5113  1.00271695 90784
INTELSAT 904 (IS-904)   
1 27380U 02007A   26177.11700990 -.00000221  00000+0  00000+0 0  9993
2 27380   6.9421  69.0793 0006534  10.4968 205.3017  1.00273226 51854
DIRECTV 5 (TEMPO 1)     
1 27426U 02023A   26176.78437416 -.00000051  00000+0  00000+0 0  9995
2 27426   4.8997  75.2077 0003505  26.5739 344.4102  1.00272965 88212
INTELSAT 905 (IS-905)   
1 27438U 02027A   26177.25822949  .00000098  00000+0  00000+0 0  9994
2 27438   6.7760  69.6927 0004135  25.9436 134.5016  1.00271719 51456
GALAXY 3C (G-3C)        
1 27445U 02030A   26177.19426329 -.00000145  00000+0  00000+0 0  9995
2 27445   3.7557  77.8632 0001948  25.0083 146.5460  1.00272425 46586
INTELSAT 906 (IS-906)   
1 27513U 02041A   26177.17934618  .00000018  00000+0  00000+0 0  9994
2 27513   5.8247  72.8110 0004227   6.8820 323.3205  1.00272027 87110
GALAXY 13 (HORIZONS-1)  
1 27954U 03044A   26177.21297933  .00000142  00000+0  00000+0 0  9992
2 27954   1.4419  83.7489 0001734   2.7038 114.5561  1.00269427 46668
INTELSAT 10-02          
1 28358U 04022A   26177.02380453  .00000000  00000+0  00000+0 0  9990
2 28358   0.0267 285.6566 0000297 220.1739 135.8915  1.00271201 80647
DIRECTV 8               
1 28659U 05019A   26177.30871015  .00000012  00000+0  00000+0 0  9994
2 28659   0.0202  67.6929 0003275  31.0006 167.8276  1.00271630 77160
GALAXY 28 (G-28)        
1 28702U 05022A   26177.23254119 -.00000192  00000+0  00000+0 0  9999
2 28702   3.3211  78.8225 0002290  15.0936 237.0616  1.00271195 52064
GALAXY 16 (G-16)        
1 29236U 06023A   26177.28518828 -.00000116  00000+0  00000+0 0  9995
2 29236   0.0425 129.7330 0002877 313.2536 195.0813  1.00272145 73062
DIRECTV 9S              
1 29494U 06043A   26177.21785120 -.00000105  00000+0  00000+0 0  9995
2 29494   2.4440  80.8031 0005394  18.1763 152.5900  1.00271840 51473
GALAXY 17 (G-17)        
1 31307U 07016B   26177.29446065 -.00000198  00000+0  00000+0 0  9994
2 31307   2.9949  79.7928 0004571  19.0037 196.6208  1.00271408 69895
INTELSAT 11 (IS-11)     
1 32253U 07044B   26177.04122515  .00000011  00000+0  00000+0 0  9993
2 32253   3.5884  78.5692 0002989  84.1881 213.1515  0.99047894 68530
HORIZONS-2              
1 32388U 07063B   26177.29818509 -.00000245  00000+0  00000+0 0  9995
2 32388   2.6254  80.5218 0004152   5.7728 221.6760  1.00271500 67902
DIRECTV 11              
1 32729U 08013A   26176.81458361 -.00000115  00000+0  00000+0 0  9999
2 32729   0.0131 250.3796 0000120 233.1459 344.4850  1.00273137 45687
GALAXY 18 (G-18)        
1 32951U 08024A   26177.30709385  .00000000  00000+0  00000+0 0  9990
2 32951   0.0245  12.4381 0003253  86.0983 163.4579  1.00269748 45943
GALAXY 19 (G-19)        
1 33376U 08045A   26177.31153682 -.00000128  00000+0  00000+0 0  9991
2 33376   0.0432 261.1196 0002891 202.4022 186.0696  1.00271333 64995
FM-5                    
1 35493U 09034A   26176.86436472 -.00000189  00000+0  00000+0 0  9999
2 35493   0.0233 289.3676 0000923  60.9599 148.6736  1.00270168 46737
INTELSAT 14 (IS-14)     
1 36097U 09064A   26177.26753310 -.00000262  00000+0  00000+0 0  9993
2 36097   0.0172  14.7247 0002665  79.1129 231.8694  1.00272749 60696
INTELSAT 15 (IS-15)     
1 36106U 09067A   26177.18341953 -.00000174  00000+0  00000+0 0  9996
2 36106   0.0114  42.1808 0002515  56.4830 326.8291  1.00271643 41310
DIRECTV 12              
1 36131U 09075A   26176.93240065 -.00000093  00000+0  00000+0 0  9997
2 36131   0.0496 173.6036 0000363 307.2864  26.1119  1.00271943 46640
INTELSAT 16 (IS-16)     
1 36397U 10006A   26177.26148714 -.00000234  00000+0  00000+0 0  9999
2 36397   0.0114  31.8534 0002382  76.7905 183.6775  1.00272461 59744
XM-5                    
1 37185U 10053A   26176.92997398 -.00000013  00000+0  00000+0 0  9994
2 37185   0.0631 271.4123 0002666 286.2713 295.9726  1.00274842 57577
INTELSAT 17 (IS-17)     
1 37238U 10065B   26177.10840244  .00000009  00000+0  00000+0 0  9998
2 37238   0.0086  69.5097 0002464  24.6648 285.0863  1.00271818 53335
INTELSAT 28 (IS-28)     
1 37392U 11016A   26177.25489451 -.00000216  00000+0  00000+0 0  9992
2 37392   1.8296  82.5210 0004006  11.3271 240.5641  1.00271748 53375
INTELSAT 18 (IS-18)     
1 37834U 11056A   26177.20230564  .00000064  00000+0  00000+0 0  9991
2 37834   0.0155 298.5865 0002070 160.2326  68.3319  1.00272939 53900
INTELSAT 22 (IS-22)     
1 38098U 12011A   26177.18090618  .00000000  00000+0  00000+0 0  9997
2 38098   0.0360  53.5740 0001763  73.2734 284.6951  1.00270696  7278
INTELSAT 19 (IS-19)     
1 38356U 12030A   26177.19953229 -.00000046  00000+0  00000+0 0  9993
2 38356   0.0176  13.1758 0003333  87.6328  51.3549  1.00271296 50541
INTELSAT 20 (IS-20)     
1 38740U 12043A   26176.82377711 -.00000014  00000+0  00000+0 0  9994
2 38740   0.0023  27.0596 0002254 149.8040 102.1505  1.00273172 50830
INTELSAT 21 (IS-21)     
1 38749U 12045A   26177.22032503 -.00000274  00000+0  00000+0 0  9995
2 38749   0.0238  68.5437 0001791  38.3132 188.8088  1.00271980 50618
